{"version": 0.6, "generator": "Overpass API 0.7.62.8 e802775f", "osm3s": {"timestamp_osm_base": "2025-10-12T17:16:05Z", "copyright": "The data included in this document is from www.openstreetmap.org. The data is made available under ODbL."}, "elements": [{"type": "node", "id": 434482089, "lat": 59.3417823, "lon": 18.0457862, "tags": {"amenity": "restaurant", "check_date": "2023-04-22", "cuisine": "regional", "diet:vegan": "no", "diet:vegetarian": "yes", "name": "Tennstopet", "opening_hours": "Mo-Tu 11:30-24:00;We-Fr 11:30-01:00;Sa 12:00-01:00;Su 12:00-24:00", "payment:cash": "yes", "phone": "+46-8-322518", "website": "https://www.tennstopet.se/", "wikidata": "Q10692708", "wikimedia_commons": "Category:Restaurang Tennstopet", "wikipedia": "sv:Tennstopet"}}, {"type": "node", "id": 449795368, "lat": 59.3446938, "lon": 18.0462532, "tags": {"amenity": "cafe", "check_date": "2019-12-04", "name": "Alter ego", "opening_hours": "Mo-Fr 11:00-18:00", "wheelchair": "no"}}, {"type": "node", "id": 449795371, "lat": 59.3443172, "lon": 18.0448409, "tags": {"addr:housenumber": "46a", "addr:street": "Frejgatan", "check_date": "2019-12-04", "email": "bergstrandsbageri@gmail.com", "name": "Bergstrands Bageri", "opening_hours": "Mo-Fr 07:00-18:00; Sa 08:00-17:00; Su 08:00-16:00", "phone": "+46708882742", "shop": "bakery", "website": "http://bergstrandsbageri.se/"}}, {"type": "node", "id": 449795376, "lat": 59.3438926, "lon": 18.0430968, "tags": {"brand": "ICA N\u00e4ra", "brand:wikidata": "Q1663776", "brand:wikipedia": "sv:Ica", "check_date": "2020-01-15", "name": "ICA n\u00e4ra Dalastan", "opening_hours": "Mo-Fr 07:00-23:00, Sa,Su 08:00-23:00", "shop": "supermarket", "wheelchair": "yes"}}, {"type": "node", "id": 467058801, "lat": 59.3432248, "lon": 18.0558266, "tags": {"amenity": "fast_food", "brand": "McDonald's", "brand:wikidata": "Q38076", "cuisine": "burger", "name": "McDonald's", "takeaway": "yes"}}, {"type": "node", "id": 467058811, "lat": 59.3434013, "lon": 18.0556671, "tags": {"amenity": "fast_food", "name": "Falafelkungen"}}, {"type": "node", "id": 467058819, "lat": 59.3406826, "lon": 18.0547939, "tags": {"amenity": "fast_food", "check_date": "2024-06-09", "cuisine": "grill", "name": "Observatoriegrillen", "opening_hours:signed": "no", "operator": "Solna korv", "wheelchair": "limited"}}, {"type": "node", "id": 467134288, "lat": 59.3454453, "lon": 18.0517818, "tags": {"amenity": "restaurant", "check_date": "2019-12-04", "cuisine": "italian", "name": "Haga Deli", "opening_hours": "Mo-We 11:30-22:00;Th-Fr 11:30-24:00;Sa 17:00-24:00;Su 17:00-22:00", "phone": "+46-8-319695", "website": "https://www.hagadeli.com/"}}, {"type": "node", "id": 469752231, "lat": 59.3456273, "lon": 18.0536372, "tags": {"amenity": "restaurant", "check_date": "2022-06-03", "name": "Kappa Bar", "website": "https://www.kappabar.se/"}}, {"type": "node", "id": 469752233, "lat": 59.3442016, "lon": 18.0525048, "tags": {"amenity": "restaurant", "check_date": "2024-06-11", "cuisine": "french", "name": "Paname", "opening_hours": "Mo off;Tu-Fr 17:00-01:00;Sa 18:00-01:00;Su off", "phone": "+46-8-314338"}}, {"type": "node", "id": 470319521, "lat": 59.341853, "lon": 18.0547772, "tags": {"amenity": "cafe", "check_date": "2024-08-25", "contact:phone": "+46 8314041", "cuisine": "coffee_shop", "indoor_seating": "yes", "name": "Kaf\u00e9 Himlavalvet", "opening_hours": "Mo-Fr 11:00-16:00; Sa,Su 11:00-17:00", "outdoor_seating": "yes", "toilets": "yes", "toilets:access": "customers", "toilets:wheelchair": "no"}}, {"type": "node", "id": 470961906, "lat": 59.3440689, "lon": 18.0548467, "tags": {"amenity": "restaurant", "check_date": "2023-04-29", "indoor_seating": "yes", "name": "Hard Rock Caf\u00e9", "opening_hours": "Mo-Th 11:30-24:00;Fr 11:30-24:00;Sa 12:00-01:00;Su 12:00-24:00", "outdoor_seating": "yes", "payment:cash": "no", "phone": "+46-8-54549400", "toilets:wheelchair": "yes", "website": "http://sthlm.hardrock.se/", "wheelchair": "limited"}}, {"type": "node", "id": 471131391, "lat": 59.3422659, "lon": 18.0491505, "tags": {"brand": "7-Eleven", "brand:wikidata": "Q259340", "brand:wikipedia": "en:7-Eleven", "check_date": "2024-10-22", "name": "7-Eleven", "opening_hours": "Mo-Th 06:00-24:00;Fr-Sa 06:00-02:00;Su 06:00-24:00", "operator": "7-Eleven", "phone": "+46-8-302119", "shop": "convenience", "website": "http://www.7-eleven.se/"}}, {"type": "node", "id": 471851902, "lat": 59.3419967, "lon": 18.0516722, "tags": {"check_date": "2024-11-13", "name": "Liselotte Hembageri", "opening_hours": "Mo-Th 07:00-18:00; Fr 07:00-17:00; Sa 09:00-15:00", "shop": "bakery"}}, {"type": "node", "id": 473467313, "lat": 59.345251, "lon": 18.040324, "tags": {"amenity": "cafe", "brand": "Espresso House", "brand:wikidata": "Q10489162", "brand:wikipedia": "en:Espresso House", "check_date": "2024-05-27", "cuisine": "coffee_shop", "name": "Espresso House", "opening_hours": "Mo-Fr 06:30-19:00; Sa,Su 08:00-19:00", "phone": "+46700889398", "takeaway": "yes", "website": "https://espressohouse.com/coffee-shops/vanadisplan/"}}, {"type": "node", "id": 473470784, "lat": 59.3454165, "lon": 18.0409826, "tags": {"check_date": "2024-05-27", "name": "In & Ut", "opening_hours": "Mo-Fr 07:30-21:00; Sa 11:00-20:00; Su 11:00-18:00", "shop": "convenience", "wheelchair": "yes"}}, {"type": "node", "id": 473470788, "lat": 59.3447242, "lon": 18.0402845, "tags": {"amenity": "restaurant", "check_date": "2023-10-03", "cuisine": "italian", "name": "Ciao Ciao Quattro", "opening_hours": "Mo-Th 16:00-22:30; Fr 16:00-23:00; Sa 12:00-23:00; Su 12:00-22:00", "phone": "+46-8-309172", "takeaway": "yes", "website": "https://ciaociaoiv.com/", "wheelchair": "yes"}}, {"type": "node", "id": 473475022, "lat": 59.3453601, "lon": 18.0407579, "tags": {"amenity": "restaurant", "check_date": "2023-12-26", "cuisine": "fondue", "name": "Fondueboden", "opening_hours": "Mo-Sa 17:00-23:00;Su off", "phone": "+46-8\u2013339900", "website": "https://www.fondueboden.se/"}}, {"type": "node", "id": 503503209, "lat": 59.3419318, "lon": 18.0478221, "tags": {"amenity": "pub", "check_date": "2024-05-07", "cuisine": "irish", "indoor_seating": "yes", "name": "Molly Malone's", "opening_hours": "Tu-Sa 13:00-01:00, Su,Mo 13:00-24:00", "outdoor_seating": "yes", "phone": "+46-8-301866"}}, {"type": "node", "id": 503503211, "lat": 59.3436602, "lon": 18.0454747, "tags": {"amenity": "restaurant", "check_date": "2019-12-28", "name": "Lilla Ego", "opening_hours": "Mo off;Tu-Sa 17:00-23:00;Su off", "phone": "+46 8 27 44 55", "website": "http://www.lillaego.com"}}, {"type": "node", "id": 503503213, "lat": 59.345725, "lon": 18.045706, "tags": {"amenity": "restaurant", "check_date": "2019-12-04", "cuisine": "japanese;korean", "name": "Go Choo", "opening_hours": "Mo-Fr 11:00-14:30,17:00-20:30", "phone": "+46-8-330986", "website": "https://gochoo.kvartersmenyn.se/"}}, {"type": "node", "id": 503503224, "lat": 59.3437903, "lon": 18.055379, "tags": {"brand": "7-Eleven", "brand:wikidata": "Q259340", "check_date": "2024-12-17", "name": "7-Eleven", "opening_hours": "24/7", "shop": "convenience", "wheelchair": "yes"}}, {"type": "node", "id": 503503227, "lat": 59.3445436, "lon": 18.0546667, "tags": {"amenity": "fast_food", "indoor_seating": "no", "name": "Subculture", "outdoor_seating": "no", "takeaway": "only"}}, {"type": "node", "id": 503503229, "lat": 59.3440901, "lon": 18.0572293, "tags": {"amenity": "bar", "check_date": "2025-08-08", "cuisine": "barbecue", "name": "The Old Brewer", "payment:cash": "no"}}, {"type": "node", "id": 503503249, "lat": 59.3386338, "lon": 18.056847, "tags": {"brand": "7-Eleven", "brand:wikidata": "Q259340", "brand:wikipedia": "en:7-Eleven", "check_date": "2025-03-19", "check_date:opening_hours": "2025-03-19", "name": "7-Eleven", "opening_hours": "Mo-Fr 07:00-23:00; Sa 08:00-23:00; Su 09:00-21:00", "operator": "7-Eleven", "phone": "+46-8-4117420", "shop": "convenience", "website": "http://www.7-eleven.se/", "wheelchair": "yes"}}, {"type": "node", "id": 503503251, "lat": 59.3386772, "lon": 18.0570608, "tags": {"amenity": "restaurant", "check_date": "2024-06-27", "name": "Rolfs k\u00f6k", "opening_hours": "Mo-Fr 11:30-01:00; Sa 17:00-01:00; Su 17:00-23:00", "phone": "+46-8-101696", "website": "https://www.rolfskok.se/"}}, {"type": "node", "id": 503503253, "lat": 59.3381209, "lon": 18.0528323, "tags": {"amenity": "restaurant", "check_date": "2024-08-15", "cuisine": "swedish", "name": "Knut", "opening_hours": "Mo-Th 11:00-23:00; Fr 11:00-24:00; Sa 16:00-24:00; Su off", "phone": "+46-8-304057", "website": "https://restaurangknut.se/upplandsgatan/"}}, {"type": "node", "id": 535273946, "lat": 59.3398607, "lon": 18.0471082, "tags": {"brand": "ICA Supermarket", "brand:wikidata": "Q1663776", "brand:wikipedia": "sv:Ica", "check_date": "2023-04-08", "name": "Ica Sabbatsberg", "opening_hours": "07:00-23:00", "shop": "supermarket"}}, {"type": "node", "id": 536525957, "lat": 59.3403358, "lon": 18.0512412, "tags": {"brand": "Hemk\u00f6p", "brand:wikidata": "Q10521746", "check_date": "2023-04-08", "check_date:opening_hours": "2021-06-15", "name": "Wasahallen", "opening_hours": "Mo-Su 07:00-23:00", "operator": "Hemk\u00f6p", "phone": "08-54541780", "shop": "supermarket", "website": "https://www.hemkop.se/butik/4658"}}, {"type": "node", "id": 536537431, "lat": 59.3396661, "lon": 18.0478898, "tags": {"amenity": "restaurant", "check_date": "2024-05-07", "diet:vegan": "no", "diet:vegetarian": "yes", "indoor_seating": "yes", "name": "Hemma Vasastan", "opening_hours": "Mo-Fr 10:30-23:00; Sa,Su 13:00-23:00", "outdoor_seating": "yes", "phone": "+46-8-6526088", "website": "https://www.hemmavasastan.se/"}}, {"type": "node", "id": 536579370, "lat": 59.3431517, "lon": 18.0482825, "tags": {"amenity": "fast_food", "brand": "Subway", "brand:wikidata": "Q244457", "brand:wikipedia": "en:Subway (restaurant)", "check_date": "2024-06-09", "cuisine": "sandwich", "name": "Subway", "opening_hours": "Mo-Fr 09:00-22:00; Sa-Su 10:00-22:00", "operator": "Subway", "payment:cash": "no", "phone": "+46-8-12290954", "takeaway": "yes", "website": "https://www.subway.com/sv-se/", "wheelchair": "no"}}, {"type": "node", "id": 538182055, "lat": 59.3433823, "lon": 18.0523385, "tags": {"amenity": "restaurant", "cuisine": "pizza;italian", "name": "Capo's", "opening_hours": "Mo-Fr 11:00-14:00, Sa 11:00-16:00"}}, {"type": "node", "id": 538182058, "lat": 59.3439395, "lon": 18.0497544, "tags": {"amenity": "cafe", "check_date": "2023-10-01", "diet:vegetarian": "yes", "indoor_seating": "yes", "name": "Nybergs konditori", "opening_hours": "Mo-Fr 07:00-19:00; Sa,Su 10:00-17:00", "organisationsnummer": "969636-4174", "outdoor_seating": "no", "phone": "+46 8 34 11 95", "website": "https://nybergskonditori.se/"}}, {"type": "node", "id": 538182066, "lat": 59.3437254, "lon": 18.047702, "tags": {"amenity": "restaurant", "check_date": "2025-01-03", "cuisine": "portuguese", "name": "Acaza", "opening_hours": "Tu-Th 16:00-23:00; Fr-Sa 11:30-23:00; Su 16:00-21:00", "phone": "08-777 41 13", "self_service": "no", "website": "https://www.acaza.se"}}, {"type": "node", "id": 538182073, "lat": 59.3433222, "lon": 18.0521242, "tags": {"amenity": "fast_food", "check_date": "2025-01-31", "check_date:opening_hours": "2025-01-31", "cuisine": "sushi", "diet:vegan": "yes", "diet:vegetarian": "yes", "name": "Itamae", "opening_hours": "Mo-Fr 11:00-21:00; Sa,Su 11:00-21:00", "takeaway": "yes", "wheelchair": "no"}}, {"type": "node", "id": 538182078, "lat": 59.3432784, "lon": 18.0515207, "tags": {"amenity": "fast_food", "brand": "Burger King", "brand:wikidata": "Q177054", "brand:wikipedia": "en:Burger King", "check_date": "2024-01-07", "cuisine": "burger", "diet:vegetarian": "yes", "indoor_seating": "yes", "name": "Burger King", "note": "For W.C. visits, look at the receipt for a code.", "note:name": "Full reference name is: Burger King Number 7844", "opening_hours": "Mo-Tu 09:00-02:00; We-Th 09:00-03:00; Fr-Sa 09:00-05:00; Su 09:00-01:00", "operator": "Burger King", "outdoor_seating": "no", "payment:cash": "yes", "phone": "+46-8-314030", "takeaway": "yes", "website": "https://burgerking.se", "wheelchair": "yes"}}, {"type": "node", "id": 538182082, "lat": 59.3435686, "lon": 18.0530499, "tags": {"amenity": "fast_food", "check_date": "2024-10-16", "cuisine": "kebab", "diet:vegan": "yes", "diet:vegetarian": "yes", "name": "Midan", "opening_hours": "Mo-Th 10:00-23:00; Fr 10:00-01:00, Sa 11:00-01:00, Su 11:00-23:00", "website": "http://midan.se/", "wheelchair": "yes"}}, {"type": "node", "id": 538182086, "lat": 59.3434126, "lon": 18.0524748, "tags": {"amenity": "restaurant", "check_date": "2024-10-16", "cuisine": "indian", "indoor_seating": "yes", "name": "Masala masala", "outdoor_seating": "yes", "phone": "+46 8- 121 470 43", "reservation": "yes", "takeaway": "yes", "website": "https://www.masalamasala.se/", "wheelchair": "no"}}, {"type": "node", "id": 617259124, "lat": 59.343183, "lon": 18.0491201, "tags": {"amenity": "bar", "check_date": "2024-08-19", "name": "Grus Grus", "operator": "Tranan", "wheelchair": "no"}}, {"type": "node", "id": 617259128, "lat": 59.3431763, "lon": 18.0489625, "tags": {"amenity": "restaurant", "check_date": "2022-12-07", "email": "tranan@tranan.se", "name": "Tranan", "opening_hours": "Mo-Fr 11:30-23:00; Sa,Su 12:00-23:00", "operator": "Tranan", "phone": "+46 8 527 281 00", "website": "http://www.tranan.se/", "wheelchair": "no"}}, {"type": "node", "id": 672431785, "lat": 59.3437336, "lon": 18.043415, "tags": {"amenity": "fast_food", "check_date": "2019-12-04", "cuisine": "pizza", "name": "Pizza H\u00f6rnet by George", "opening_hours": "Mo-Fr 11:00-21:00;Sa-Su 12:00-21:00", "phone": "+46-8-341560"}}, {"type": "node", "id": 672431786, "lat": 59.3430127, "lon": 18.0445468, "tags": {"amenity": "cafe", "check_date": "2023-04-22", "cuisine": "italian", "name": "Caff\u00e8 l'Antico", "wheelchair": "no"}}, {"type": "node", "id": 672431788, "lat": 59.3430126, "lon": 18.0448383, "tags": {"check_date": "2023-04-22", "name": "Snabbk\u00f6p", "opening_hours": "Mo-Fr 08:00-20:00; Sa 10:00-18:00; Su off", "shop": "convenience", "wheelchair": "yes"}}, {"type": "node", "id": 708032009, "lat": 59.3377713, "lon": 18.0403515, "tags": {"amenity": "restaurant", "check_date": "2019-12-07", "name": "Torsgatan 21", "opening_hours": "Mo-Fr 11:00-14:00;Sa-Su off", "operator": "Amica"}}, {"type": "node", "id": 760201397, "lat": 59.3412333, "lon": 18.0453082, "tags": {"amenity": "cafe", "check_date": "2019-12-06", "description": "summer only", "indoor_seating": "no", "name": "Parkl\u00e5dan", "outdoor_seating": "yes", "website": "https://instagram.com/parkladansthlm"}}, {"type": "node", "id": 765971887, "lat": 59.344611, "lon": 18.046817, "tags": {"amenity": "restaurant", "check_date": "2019-12-04", "name": "Skvallerh\u00f6rnan", "opening_hours": "Mo-Sa 16:00-23:00"}}, {"type": "node", "id": 765971907, "lat": 59.3441775, "lon": 18.0442712, "tags": {"addr:city": "Stockholm", "addr:housenumber": "48", "addr:postcode": "113 26", "addr:street": "Frejgatan", "amenity": "restaurant", "check_date": "2024-01-14", "cuisine": "italian", "name": "Restaurang Linguini", "opening_hours": "Tu-Th 16:30-22:30 Fr-Sa 16:30-23:30", "phone": "+46-8-314915", "takeaway": "yes", "website": "http://www.restauranglinguini.se/"}}, {"type": "node", "id": 766791992, "lat": 59.3403993, "lon": 18.047124, "tags": {"amenity": "cafe", "check_date": "2024-10-22", "name": "Tea & Garden", "opening_hours": "Tu-Fr 11:00-18:30; Sa,Su 12:00-18:00"}}, {"type": "node", "id": 766791993, "lat": 59.3391468, "lon": 18.0483789, "tags": {"amenity": "restaurant", "check_date": "2024-05-07", "diet:vegan": "yes", "diet:vegetarian": "yes", "name": "Sthlm Brunch Club", "opening_hours": "Mo-Th 08:00-15:30; Sa,Su 08:30-16:00; Fr 07:30-15:30", "payment:cash": "no", "phone": "+46-8-305243", "website": "https://www.sthlmbrunchclub.se/"}}, {"type": "node", "id": 766791994, "lat": 59.3402096, "lon": 18.047395, "tags": {"amenity": "fast_food", "check_date": "2022-10-26", "cuisine": "mexican;american", "diet:vegan": "no", "diet:vegetarian": "yes", "indoor_seating": "yes", "name": "Mr Burrito and Friends", "opening_hours": "Mo-Sa 11:00-20:00, Sa,Su 12:00-20:00", "outdoor_seating": "yes", "takeaway": "yes"}}, {"type": "node", "id": 766791997, "lat": 59.3412477, "lon": 18.0462899, "tags": {"amenity": "restaurant", "check_date": "2024-10-22", "cuisine": "seafood", "name": "Musslan", "opening_hours": "Mo-Th 17:00-01:00; Fr, Sa 17:00-02:00; Su 09:00-18:00", "payment:cash": "no", "phone": "+46-8-346410", "website": "https://www.musslan.se/"}}, {"type": "node", "id": 766791998, "lat": 59.3415871, "lon": 18.0450357, "tags": {"amenity": "restaurant", "check_date": "2023-12-26", "check_date:opening_hours": "2023-12-26", "cuisine": "pizza", "diet:vegan": "no", "diet:vegetarian": "yes", "name": "The Italian Cousins", "opening_hours:signed": "no"}}, {"type": "node", "id": 766792001, "lat": 59.3414563, "lon": 18.0445333, "tags": {"amenity": "cafe", "check_date": "2024-02-11", "diet:vegan": "yes", "diet:vegetarian": "yes", "internet_access": "wlan", "internet_access:fee": "customers", "name": "Ritorno", "opening_hours": "Mo-Th 07:00-20:00; Fr 07:00-19:00; Sa 08:00-18:00; Su 10:00-18:00", "phone": "+46-8-320106", "website": "https://www.ritorno.se/"}}, {"type": "node", "id": 766792005, "lat": 59.3411645, "lon": 18.0463717, "tags": {"amenity": "restaurant", "check_date": "2024-10-22", "cuisine": "seafood", "name": "Wasahof", "opening_hours": "Mo-Tu 17:00-24:00;We-Sa 17:00-01:00;Su off", "payment:cash": "no", "phone": "+46-8-323440", "website": "https://wasahof.se/", "wikidata": "Q10719341", "wikipedia": "sv:Wasahof"}}, {"type": "node", "id": 766792013, "lat": 59.3410019, "lon": 18.0465315, "tags": {"amenity": "restaurant", "check_date": "2024-05-07", "diet:vegan": "no", "diet:vegetarian": "yes", "name": "Bistro Casper", "opening_hours": "Mo 11:00-14:00;Tu-Fr 11:00-22:00;Sa-Su 13:00-22:00", "phone": "+46-8-227750", "website": "https://www.bistrocasper.se/"}}, {"type": "node", "id": 766792017, "lat": 59.3407083, "lon": 18.0414469, "tags": {"amenity": "restaurant", "check_date": "2020-03-06", "cuisine": "vietnamese", "email": "bistro@minhmat.se", "name": "Minh Mat", "opening_hours": "Mo-Fr 11:00-14:00, 17:00-22:30; Sa 14:00-22:30; Su closed", "payment:cash": "yes", "website": "http://minhmat.se/"}}, {"type": "node", "id": 769280836, "lat": 59.3451725, "lon": 18.0570476, "tags": {"amenity": "restaurant", "check_date": "2024-10-21", "cuisine": "lebanese", "name": "Byblos"}}, {"type": "node", "id": 769281534, "lat": 59.3450292, "lon": 18.0564938, "tags": {"amenity": "restaurant", "check_date": "2024-10-21", "name": "Cr\u00eaperie & logi", "payment:cash": "no"}}, {"type": "node", "id": 769286831, "lat": 59.3448884, "lon": 18.0550906, "tags": {"amenity": "pub", "check_date": "2024-07-29", "cuisine": "sportsbar", "indoor_seating": "yes", "name": "Retro", "opening_hours": "Mo-Fr 13:00-01:00; Sa-Su 12:00-01:00", "outdoor_seating": "yes", "payment:cash": "no", "phone": "+46-8-6129964", "website": "http://www.retrostockholm.se/"}}, {"type": "node", "id": 769288910, "lat": 59.343521, "lon": 18.0506043, "tags": {"check_date": "2024-01-07", "name": "Myway Turh\u00f6rnan", "opening_hours": "Mo-Fr 09:00-20:00; Sa 09:00-17:00; Su 10:00-16:00", "operator": "Myway", "shop": "convenience", "wheelchair": "no"}}, {"type": "node", "id": 769289373, "lat": 59.3432381, "lon": 18.0504293, "tags": {"amenity": "cafe", "brand": "Br\u00f6d & Salt", "brand:wikidata": "Q131369998", "check_date": "2025-01-31", "check_date:diet:vegan": "2025-01-31", "check_date:diet:vegetarian": "2025-01-31", "diet:vegan": "yes", "diet:vegetarian": "yes", "indoor_seating": "yes", "name": "Br\u00f6d & Salt", "opening_hours": "Mo-Fr 06:30-20:00; Sa 07:30-20:00; Su 08:00-19:00", "outdoor_seating": "no", "payment:cash": "no", "shop": "bakery", "website": "https://www.brodsalt.se/", "wheelchair": "no"}}, {"type": "node", "id": 769297943, "lat": 59.3419605, "lon": 18.0465702, "tags": {"amenity": "restaurant", "check_date": "2025-02-19", "check_date:opening_hours": "2025-02-19", "cuisine": "chinese", "name": "Kinamuren", "opening_hours": "Mo-Th 11:00-22:00; Fr 11:00-23:00; Sa 12:00-23:00; Su 12:00-22:00", "payment:cash": "yes", "phone": "+46-8-311735", "takeaway": "yes", "website": "https://www.kinamuren.nu/"}}, {"type": "node", "id": 778311560, "lat": 59.3395435, "lon": 18.0474365, "tags": {"check_date": "2024-06-06", "indoor_seating": "yes", "name": "Brunkebergs Bageri", "opening_hours": "Mo-Fr 07:00-18:00;Sa 08:00-16:00;Su 08:00-15:00", "outdoor_seating": "yes", "payment:cash": "no", "shop": "bakery", "website": "http://dalagatan.brunkebergsbageri.se/valkommen_dalagatan.html"}}, {"type": "node", "id": 811355592, "lat": 59.3453257, "lon": 18.0406212, "tags": {"amenity": "restaurant", "capacity": "30", "check_date": "2024-05-27", "cuisine": "sushi", "name": "Vanadis Sushibar", "opening_hours": "Mo-Fr 10:30-22:00; Sa,Su 12:00-22:00", "phone": "+46-8-310808", "takeaway": "yes", "website": "https://vanadissushi.se/", "wheelchair": "yes"}}, {"type": "node", "id": 846109894, "lat": 59.3369954, "lon": 18.0525427, "tags": {"amenity": "fast_food", "check_date": "2020-05-06", "cuisine": "indian", "name": "Indian King"}}, {"type": "node", "id": 867360964, "lat": 59.3411649, "lon": 18.0484285, "tags": {"amenity": "pub", "check_date": "2020-02-14", "email": "Boka@jolo.se", "name": "Jolo", "opening_hours": "Mo,Tu 16:00-23:00; We,Th 16:00-24:00; Fr,Sa 16:00-01:00;Su off", "phone": "+46 8 318580", "sport": "10pin", "website": "https://www.jolo.se/"}}, {"type": "node", "id": 867360972, "lat": 59.338587, "lon": 18.0528239, "tags": {"amenity": "cafe", "check_date": "2024-08-15", "name": "Kadampa meditationscenter", "website": "https://meditationistockholm.se/"}}, {"type": "node", "id": 867361213, "lat": 59.3418251, "lon": 18.0491309, "tags": {"amenity": "restaurant", "check_date": "2024-05-24", "cuisine": "kebab", "name": "le kebab", "website": "https://www.lekebab.se/"}}, {"type": "node", "id": 867361342, "lat": 59.3406501, "lon": 18.0508037, "tags": {"amenity": "fast_food", "check_date": "2024-03-22", "cuisine": "burger", "name": "Flippin' Burgers", "opening_hours": "Mo-Fr 16:00-22:00;Sa 12:00-22:00;Su off", "payment:cash": "no", "website": "https://flippinburgers.se/"}}, {"type": "node", "id": 867361436, "lat": 59.3433712, "lon": 18.0480461, "tags": {"amenity": "cafe", "check_date": "2025-09-07", "name": "Bl\u00e5b\u00e4r", "opening_hours": "Mo-Fr 09:00-20:00; Sa,Su 10:00-18:00", "phone": "+46-8-325475", "wheelchair": "yes"}}, {"type": "node", "id": 867361506, "lat": 59.3371115, "lon": 18.0577586, "tags": {"amenity": "restaurant", "check_date": "2024-09-01", "cuisine": "thai", "name": "Tjabba thai", "opening_hours": "Mo-Fr 11:00-22:00;Sa-Su 14:00-22:00", "phone": "+468219988", "website": "https://www.tjabbathai.se/"}}, {"type": "node", "id": 1024194455, "lat": 59.3403405, "lon": 18.0505324, "tags": {"amenity": "restaurant", "capacity": "30", "check_date": "2020-02-14", "cuisine": "sushi;japanese", "name": "Ki-Mama", "opening_hours": "Mo-Fr 11:00-21:00; Sa-Su 13:00-21:00", "phone": "+46-8-333482", "takeaway": "yes", "website": "https://kimama.restaurant"}}, {"type": "node", "id": 1037788347, "lat": 59.3388138, "lon": 18.0567015, "tags": {"amenity": "pub", "check_date": "2024-08-25", "cuisine": "british", "name": "Queen's Head", "opening_hours": "Mo-Fr 16:00-01:00;Sa 15:00-01:00;Su 15:00-23:00", "website": "https://www.queenshead.se/", "wheelchair": "no"}}, {"type": "node", "id": 1040077735, "lat": 59.3390027, "lon": 18.0561188, "tags": {"amenity": "restaurant", "capacity": "200", "check_date": "2022-06-13", "cuisine": "european", "name": "Grill", "opening_hours": "Mo-Fr 11:15-01:00; Sa 16:00-01:00; Su 15:00-23:00", "operator": "Grupp F12", "phone": "+46-8-319410", "website": "https://www.grill.se/"}}, {"type": "node", "id": 1151038334, "lat": 59.344574, "lon": 18.0571136, "tags": {"amenity": "pub", "check_date": "2024-08-25", "indoor_seating": "yes", "name": "The Flying Horse", "opening_hours": "Mo-Th 13:00-01:00; Fr,Sa 13:00-03:00;Su 13:00-01:00", "outdoor_seating": "yes", "payment:cash": "no", "phone": "+46 8 6126378", "toilets:wheelchair": "yes", "website": "https://www.flyinghorse.se/", "wheelchair": "limited"}}, {"type": "node", "id": 1170179667, "lat": 59.3427308, "lon": 18.0571262, "tags": {"amenity": "cafe", "check_date": "2024-07-15", "cuisine": "coffee_shop", "diet:vegetarian": "yes", "name": "Jacobs Coffee", "opening_hours": "Mo-Fr 08:00-20:00; Sa-Su 11:00-18:00", "payment:cash": "yes", "phone": "+46-8-6736090", "website": "http://www.jacobscoffee.se/", "wheelchair": "limited"}}, {"type": "node", "id": 1261379523, "lat": 59.3408571, "lon": 18.0466738, "tags": {"amenity": "restaurant", "check_date": "2024-05-24", "diet:vegan": "no", "diet:vegetarian": "yes", "name": "nisch", "opening_hours": "We-Sa 18:00-23:00", "phone": "+46 8 949113", "website": "https://www.nischrestaurant.com/"}}, {"type": "node", "id": 1429311412, "lat": 59.3375202, "lon": 18.0576392, "tags": {"amenity": "restaurant", "check_date": "2025-06-13", "cuisine": "argentinian", "name": "El Chimichurri", "website": "https://elchimichurri.se/"}}, {"type": "node", "id": 1429311497, "lat": 59.3374643, "lon": 18.0576958, "tags": {"amenity": "restaurant", "check_date": "2025-05-03", "cuisine": "persian", "name": "Malakeh"}}, {"type": "node", "id": 1431277318, "lat": 59.3424152, "lon": 18.0574274, "tags": {"amenity": "cafe", "brand": "Caff\u00e8 Nero", "brand:wikidata": "Q675808", "bulk_purchase": "no", "check_date": "2024-05-29", "cuisine": "coffee_shop", "diet:vegan": "yes", "diet:vegetarian": "yes", "name": "Caff\u00e8 Nero", "opening_hours": "Mo-Fr 07:00-19:00; Sa 08:00-19:00; Su 08:00-19:00", "takeaway": "yes", "wheelchair": "limited"}}, {"type": "node", "id": 1432188781, "lat": 59.3386307, "lon": 18.0560135, "tags": {"amenity": "restaurant", "check_date": "2020-02-19", "cuisine": "meat", "name": "K\u00f6ttm\u00e4starn", "phone": "+46812211212", "website": "https://kottmastarn.se"}}, {"type": "node", "id": 1432188783, "lat": 59.3385775, "lon": 18.0566183, "tags": {"amenity": "restaurant", "check_date": "2024-08-18", "cuisine": "sushi", "name": "Hattori sushi devil", "opening_hours": "Ti-Sa 17:00+; Su, Mo off", "outdoor_seating": "no", "phone": "+46-8-224400", "smoking": "no", "website": "https://www.hattorisushidevil.se/"}}, {"type": "node", "id": 1432188789, "lat": 59.3387391, "lon": 18.0563787, "tags": {"amenity": "restaurant", "name": "La Esquina", "opening_hours": "Mo-Fr 11:00-24:00+, Sa 16:00-24:00+"}}, {"type": "node", "id": 1432188790, "lat": 59.3381753, "lon": 18.0572997, "tags": {"brand": "Fabrique", "brand:wikidata": "Q110533127", "check_date": "2023-12-25", "name": "Fabrique", "opening_hours": "Mo-Fr 07:30-18:00;Sa-Su 08:00-16:00", "shop": "bakery", "website": "https://www.fabrique.se/", "wheelchair": "no"}}, {"type": "node", "id": 1432188800, "lat": 59.3383029, "lon": 18.0571692, "tags": {"al_fresco": "yes", "amenity": "restaurant", "check_date": "2023-12-25", "check_date:opening_hours": "2023-12-25", "cuisine": "lebanese", "diet:gluten_free": "yes", "name": "Underbar", "opening_hours:signed": "no", "phone": "+46-8-101116", "website": "https://www.restaurangunderbar.se/"}}, {"type": "node", "id": 1433722540, "lat": 59.3436177, "lon": 18.0572894, "tags": {"amenity": "restaurant", "check_date": "2024-05-29", "cuisine": "korean", "diet:vegan": "yes", "diet:vegetarian": "yes", "name": "Kimchi", "opening_hours": "Tu-Fr 11:00-14:00, We-Sa 17:00-22:00; Su,Mo off", "phone": "+46-8-68402629", "website": "https://www.restaurangkimchi.se/"}}, {"type": "node", "id": 1436224082, "lat": 59.3452744, "lon": 18.0547246, "tags": {"amenity": "restaurant", "check_date": "2024-05-22", "cuisine": "indian", "name": "Curry Spice City"}}, {"type": "node", "id": 1436224086, "lat": 59.3454906, "lon": 18.0538394, "tags": {"amenity": "fast_food", "check_date": "2022-06-03", "cuisine": "persian", "name": "SUNdeVICH", "name:fa": "\u0633\u0627\u0646\u062f\u0648\u06cc\u0686", "website": "https://sundevich.se/"}}, {"type": "node", "id": 1449088383, "lat": 59.3388148, "lon": 18.053095, "tags": {"amenity": "restaurant", "check_date": "2024-06-23", "cuisine": "tapas", "diet:vegetarian": "yes", "indoor_seating": "yes", "name": "La Tonteria", "opening_hours": "Tu-Sa 17:00-24:00+", "outdoor_seating": "yes", "payment:cash": "no", "takeaway": "yes", "wheelchair": "no"}}, {"type": "node", "id": 1450512253, "lat": 59.3439836, "lon": 18.0547585, "tags": {"amenity": "bar", "check_date": "2023-11-11", "check_date:opening_hours": "2023-11-11", "indoor_seating": "yes", "name": "Combo vinbaren", "opening_hours:signed": "no", "outdoor_seating": "no"}}, {"type": "node", "id": 1450512288, "lat": 59.3438482, "lon": 18.054205, "tags": {"amenity": "fast_food", "check_date": "2024-05-24", "cuisine": "kebab", "diet:vegetarian": "yes", "indoor_seating": "yes", "name": "Kebabkungen", "opening_hours": "10:00-05:00", "outdoor_seating": "yes", "takeaway": "yes", "wheelchair": "yes"}}, {"type": "node", "id": 1450512289, "lat": 59.3458246, "lon": 18.0534643, "tags": {"amenity": "restaurant", "check_date": "2023-12-26", "cuisine": "asian", "name": "Kokyo", "opening_hours": "Mo-Th 11:00-21:30;Fr 11:00-23:00;Sa 17:00-23:00;Su 17:00-21:30", "phone": "+46-8-320073", "website": "https://www.kokyo.se/"}}, {"type": "node", "id": 1450512314, "lat": 59.3435522, "lon": 18.054163}, {"type": "node", "id": 1450512316, "lat": 59.3435731, "lon": 18.0542548}, {"type": "node", "id": 1450512317, "lat": 59.3435779, "lon": 18.0541405}, {"type": "node", "id": 1450512318, "lat": 59.3435988, "lon": 18.0542323}, {"type": "node", "id": 1450512321, "lat": 59.3439035, "lon": 18.0544407, "tags": {"brand": "Direkten", "brand:wikidata": "Q105693281", "check_date": "2023-11-11", "name": "Direkten", "opening_hours": "Mo-Fr 09:30-19:00; Sa 10:00-16:00; Su 10:00-15:00", "shop": "convenience"}}, {"type": "node", "id": 1451010597, "lat": 59.3390826, "lon": 18.0564037, "tags": {"air_conditioning": "no", "amenity": "fast_food", "check_date": "2025-08-30", "check_date:opening_hours": "2025-08-30", "check_date:smoking": "2025-08-30", "cuisine": "sushi", "indoor_seating": "yes", "name": "Haikky sushibar", "opening_hours": "Mo-Fr 11:00-20:30; Sa 12:00-20:30", "outdoor_seating": "yes", "smoking": "outside"}}, {"type": "node", "id": 1451010622, "lat": 59.3389371, "lon": 18.0565536, "tags": {"amenity": "fast_food", "check_date": "2024-08-25", "cuisine": "japanese", "name": "Makoto Bento", "opening_hours": "Mo-Fr 11:00-14:30; Su 12:00-14:30"}}, {"type": "node", "id": 1457186280, "lat": 59.34243, "lon": 18.0512451, "tags": {"amenity": "restaurant", "check_date": "2024-11-13", "cuisine": "mexican", "indoor_seating": "yes", "name": "YUC!", "opening_hours": "Su-Th 17:00-23:00, Fr,Sa 17:00-01:00", "outdoor_seating": "no"}}, {"type": "node", "id": 1457874999, "lat": 59.3418369, "lon": 18.0518359, "tags": {"amenity": "restaurant", "check_date": "2025-06-30", "name": "Hawaii Pok\u00e9", "opening_hours": "Mo-Fr 10:30-20:00; Sa-Su 12:00-20:00"}}, {"type": "node", "id": 1457875007, "lat": 59.3420745, "lon": 18.0520229, "tags": {"amenity": "cafe", "check_date": "2022-06-30", "name": "Pascal", "opening_hours": "Mo-Fr 07:00-19:00; Sa-Su 07:00-17:00", "phone": "+46-8-316110", "website": "http://cafepascal.se/"}}, {"type": "node", "id": 1478208788, "lat": 59.3418077, "lon": 18.0473345, "tags": {"amenity": "restaurant", "check_date": "2023-09-12", "cuisine": "vietnamese", "diet:vegan": "yes", "diet:vegetarian": "yes", "email": "info@eatnam.se", "indoor_seating": "yes", "name": "Eatnam", "opening_hours": "Mo-Sa 11:00-22:00; Su 12:00-21:00", "outdoor_seating": "yes", "payment:mastercard": "yes", "payment:visa": "yes", "phone": "+46-8-305130", "reservation": "no", "website": "https://eatnam.se", "wheelchair": "yes"}}, {"type": "node", "id": 1478208803, "lat": 59.3416681, "lon": 18.0467739, "tags": {"amenity": "restaurant", "check_date": "2024-05-07", "cuisine": "indian", "diet:vegan": "yes", "diet:vegetarian": "yes", "indoor_seating": "yes", "name": "Guru", "opening_hours": "Mo-Fr 16:00-23:00;Sa 12:00-23:00;Su 13:00-21:00", "outdoor_seating": "yes", "phone": "+46-8-301718", "takeaway": "yes", "website": "https://indianguru.se/"}}, {"type": "node", "id": 1478208849, "lat": 59.341748, "lon": 18.0470948, "tags": {"amenity": "restaurant", "check_date": "2024-05-24", "cuisine": "italian", "diet:vegan": "yes", "diet:vegetarian": "yes", "email": "odenplan@villaromana.se", "indoor_seating": "yes", "name": "Villa Romana", "opening_hours": "Mo-Th 11:00-22:00; Fr 11:00-23:00; Sa 12:00-23:00; Su 12:00-22:00", "outdoor_seating": "yes", "phone": "+46-8-272980", "website": "https://odenplan.villaromana.se/"}}, {"type": "node", "id": 1478208852, "lat": 59.3420833, "lon": 18.0484515, "tags": {"amenity": "restaurant", "check_date": "2024-05-24", "cuisine": "italian", "diet:vegan": "no", "diet:vegetarian": "yes", "email": "odenplan@primociaociao.com", "indoor_seating": "yes", "name": "Primo Ciao Ciao", "opening_hours": "Mo-Th 11:00-22:00; Fr 11:00-23:00; Sa 12:00-23:00; Su 12:00-22:00", "outdoor_seating": "yes", "phone": "+46-8-320122", "website": "https://primociaociao.se/"}}, {"type": "node", "id": 1484973340, "lat": 59.3405641, "lon": 18.0424661}, {"type": "node", "id": 1484973341, "lat": 59.3405915, "lon": 18.042303}, {"type": "node", "id": 1484973345, "lat": 59.340618, "lon": 18.0424195}, {"type": "node", "id": 1518434575, "lat": 59.344334, "lon": 18.0575551, "tags": {"check_date": "2024-08-25", "name": "Brot", "opening_hours": "Mo-Fr 07:00-18:00; Sa 08:00-16:00; Su 08:00-16:00", "phone": "+46-8-6734754", "shop": "bakery", "website": "http://brot-stockholm.se/"}}, {"type": "node", "id": 1518434598, "lat": 59.3442992, "lon": 18.0574191, "tags": {"amenity": "restaurant", "check_date": "2024-07-22", "name": "Holy Kebab"}}, {"type": "node", "id": 1518434797, "lat": 59.3444528, "lon": 18.0566195, "tags": {"amenity": "cafe", "check_date": "2025-04-26", "check_date:diet:vegetarian": "2025-04-26", "check_date:opening_hours": "2023-11-11", "diet:vegetarian": "yes", "indoor_seating": "yes", "name": "Caf\u00e9 Nestro", "opening_hours:signed": "no", "outdoor_seating": "yes"}}, {"type": "node", "id": 1518434819, "lat": 59.3440007, "lon": 18.0562376, "tags": {"amenity": "fast_food", "check_date": "2024-07-22", "check_date:opening_hours": "2023-11-11", "cuisine": "sushi", "name": "Yume sushi", "opening_hours": "Mo-Fr 11:00-21:00; Sa 12:00-21:00; Su 12:00-20:00"}}, {"type": "node", "id": 1519948672, "lat": 59.3421656, "lon": 18.0576644, "tags": {"amenity": "cafe", "brand": "Espresso House", "brand:wikidata": "Q10489162", "brand:wikipedia": "en:Espresso House", "check_date": "2024-05-29", "cuisine": "coffee_shop", "diet:vegan": "yes", "diet:vegetarian": "yes", "name": "Espresso House", "opening_hours": "Mo-Fr 07:00-21:00;Sa-Su 09:00-20:00", "operator": "Espresso House", "phone": "+46-10-5101225", "takeaway": "yes", "website": "https://www.espressohouse.se/", "wheelchair": "limited"}}, {"type": "node", "id": 1538690720, "lat": 59.3433546, "lon": 18.0503289, "tags": {"amenity": "restaurant", "brand": "Sushi Yama", "brand:wikidata": "Q31897009", "cuisine": "japanese", "name": "Sushi Yama", "opening_hours": "Mo-Su 10:00-21:00", "phone": "+46 8207020", "website": "https://sushiyama.se/"}}, {"type": "node", "id": 1550011786, "lat": 59.3434437, "lon": 18.0526002, "tags": {"amenity": "restaurant", "check_date": "2024-10-16", "name": "Bryggeriet", "website": "https://www.bryggerietbar.se/", "wheelchair": "no"}}, {"type": "node", "id": 1550011913, "lat": 59.3444558, "lon": 18.0527031, "tags": {"amenity": "fast_food", "check_date": "2024-03-07", "cuisine": "pizza", "diet:vegan": "yes", "diet:vegetarian": "yes", "name": "Quattro", "opening_hours": "Mo-Fr 10:00-22:00; Sa,Su 12:00-22:00", "website": "http://www.pizzeriaodenplan.se/", "wheelchair": "yes"}}, {"type": "node", "id": 1554679997, "lat": 59.3429707, "lon": 18.0521068, "tags": {"brand": "Coop", "brand:wikidata": "Q106684510", "check_date": "2024-06-09", "name": "Coop Odenplan", "opening_hours": "Mo-Fr 07:00-22:00; Sa-Su 09:00-22:00", "operator": "Coop", "phone": "010-7411720", "shop": "supermarket", "website": "https://www.coop.se/butiker-erbjudanden/coop/coop-odenplan/"}}, {"type": "node", "id": 1554680007, "lat": 59.3431, "lon": 18.046, "tags": {"brand": "Hemk\u00f6p", "brand:wikidata": "Q10521746", "brand:wikipedia": "sv:Hemk\u00f6p", "check_date": "2024-06-09", "name": "Hemk\u00f6p Stockholm Odenplan", "opening_hours": "Mo-Su 07:00-23:00", "operator": "Axfood", "payment:cash": "yes", "phone": "08-300211", "shop": "supermarket", "website": "https://www.hemkop.se/butik/4129", "wheelchair": "yes"}}, {"type": "node", "id": 1595429758, "lat": 59.3452615, "lon": 18.0565806, "tags": {"amenity": "restaurant", "bar": "yes", "check_date": "2025-01-15", "contact:facebook": "https://www.facebook.com/profile.php?id=61571467358781", "cuisine": "dessert;european;spanish;mediterranean;s\u00e4songsbaserat", "diet:fish": "yes", "diet:meat": "yes", "diet:mediterranean": "yes", "diet:seafood": "yes", "diet:vegetarian": "yes", "internet_access": "wlan", "name": "Flor matbar", "old_name": "Jim & Jacob", "opening_hours": "Mo-tu off; We-th 17:00-22:00; fr-su 17:00-23:00", "outdoor_seating": "yes", "payment:account_cards": "yes", "payment:app": "yes", "payment:apple_pay": "yes", "payment:cards": "yes", "payment:credit_cards": "yes", "payment:maestro": "yes", "payment:mastercard": "yes", "payment:visa": "yes", "payment:visa_electron": "yes", "phone": "+46868441515", "reservation": "yes", "website": "https://www.flormatbar.se/", "website:menu": "https://www.flormatbar.se/meny"}}, {"type": "node", "id": 1595429780, "lat": 59.344976, "lon": 18.0554269, "tags": {"amenity": "restaurant", "check_date": "2020-01-29", "name": "Swing by Golfbaren", "sport": "miniature_golf"}}, {"type": "node", "id": 1595430247, "lat": 59.3447126, "lon": 18.0544271, "tags": {"air_conditioning": "yes", "amenity": "cafe", "check_date": "2024-05-22", "cuisine": "coffee_shop", "indoor_seating": "yes", "name": "Java Whiskers", "opening_hours": "Mo-Fr 12:00-18:00; Sa-Su 10:00-18:00", "outdoor_seating": "no", "smoking": "no", "theme": "cat", "website": "https://javawhiskers.co.uk/", "wheelchair": "limited"}}, {"type": "node", "id": 1611096420, "lat": 59.345117, "lon": 18.0575761, "tags": {"amenity": "fast_food", "check_date": "2020-01-30", "cuisine": "pizza", "name": "Tosca Pizzeria", "phone": "+46-8-6129110", "takeaway": "yes"}}, {"type": "node", "id": 1902750757, "lat": 59.3400094, "lon": 18.0468934, "tags": {"amenity": "restaurant", "check_date": "2023-04-08", "cuisine": "fish", "indoor_seating": "yes", "name": "Melanders", "outdoor_seating": "yes", "shop": "deli", "website": "https://www.melanders.se/Dalagatan.php"}}, {"type": "node", "id": 1984216192, "lat": 59.3446339, "lon": 18.0573513, "tags": {"check_date": "2023-11-11", "name": "Fabriue", "opening_hours": "Mo-Fr 07:30-18:00;Sa 08:00-16:00;Su 08:00-14:00", "phone": "+46-8-6120445", "shop": "bakery", "website": "https://fabrique.se/"}}, {"type": "node", "id": 1996050261, "lat": 59.3421827, "lon": 18.0492357, "tags": {"amenity": "fast_food", "check_date": "2024-05-24", "cuisine": "thai", "diet:vegan": "yes", "diet:vegetarian": "yes", "name": "Full Moon Wok", "opening_hours": "Mo-Fr 11:00-21:00; Sa-Su 12:00-21:00", "phone": "+46-8-317706", "takeaway": "yes", "website": "https://www.fullmoonwok.se/", "wheelchair": "no"}}, {"type": "node", "id": 2020585962, "lat": 59.3411962, "lon": 18.050245, "tags": {"amenity": "restaurant", "check_date": "2020-02-14", "cuisine": "indian", "name": "Ashoka", "opening_hours": "Mo-Fr 11:00-15:00,17:00-22:00; Sa,Su 16:00-22:00", "phone": "+46-8-315500"}}, {"type": "node", "id": 2020585970, "lat": 59.3411079, "lon": 18.0503353, "tags": {"amenity": "restaurant", "cuisine": "sushi", "name": "MGL Sushi", "opening_hours": "Mo-Fr 11:00-21:00; Sa,Su 12:00-21:00"}}, {"type": "node", "id": 2020585989, "lat": 59.3441014, "lon": 18.0566266, "tags": {"amenity": "bar", "check_date": "2023-11-11", "cuisine": "tapas", "name": "Mondo", "opening_hours": "Mo 16:00-22:00;Tu-Th 16:00-23:00;Fr-Sa 16:00-24:00;Su off", "phone": "+46-8-6444033", "takeaway": "yes", "website": "https://www.mondotapas.se/"}}, {"type": "node", "id": 2129439281, "lat": 59.3404828, "lon": 18.0402973, "tags": {"amenity": "bar", "check_date": "2023-12-26", "name": "Erlands", "opening_hours": "We,Th 17:00-24:00; Fr,Sa 16:00-01:00", "phone": "+46-8-304107"}}, {"type": "node", "id": 2129439291, "lat": 59.3405334, "lon": 18.0402484, "tags": {"amenity": "restaurant", "check_date": "2023-12-26", "cuisine": "sushi;dumplings", "name": "Ni Hao", "opening_hours": "Mo-Fr 11:00-21:00; Sa,Su 12:00-20:00", "phone": "+46-8-302006", "takeaway": "yes"}}, {"type": "node", "id": 2435618939, "lat": 59.3408827, "lon": 18.0570268, "tags": {"amenity": "restaurant", "check_date": "2020-02-13", "cuisine": "ethiopian", "name": "Ethiostar", "opening_hours": "Mo-Th 16:00-23:00;Fr 16:00-01:00;Sa 15:00-01:00;Su 15:00-23:00", "phone": "+46-8-305044", "website": "https://www.ethiostar.se/"}}, {"type": "node", "id": 2449452478, "lat": 59.3397363, "lon": 18.0567226, "tags": {"amenity": "cafe", "check_date": "2025-03-02", "check_date:diet:vegetarian": "2025-03-02", "diet:vegetarian": "yes", "indoor_seating": "yes", "indoor_seating:comfort": "chair", "internet_access": "wlan", "internet_access:fee": "no", "name": "Gast", "opening_hours": "Mo-Fr 07:30-17:00; Sa,Su 09:00-17:00", "outdoor_seating": "yes", "payment:credit_cards": "yes", "payment:debit_cards": "yes", "website": "https://www.gastcafe.se/"}}, {"type": "node", "id": 2463097761, "lat": 59.3375718, "lon": 18.0515317, "tags": {"amenity": "restaurant", "check_date": "2020-05-06", "cuisine": "japanese", "name": "Nana omakase", "payment:cash": "no"}}, {"type": "node", "id": 2466944888, "lat": 59.3380086, "lon": 18.0529425, "tags": {"amenity": "cafe", "check_date": "2020-08-11", "name": "Primafila", "payment:cash": "no"}}, {"type": "node", "id": 2520320004, "lat": 59.3442202, "lon": 18.0571108, "tags": {"amenity": "cafe", "brand": "Joe & The Juice", "brand:wikidata": "Q26221514", "brand:wikipedia": "en:Joe & The Juice", "check_date": "2024-07-22", "cuisine": "coffee_shop", "name": "Joe & The Juice", "takeaway": "yes"}}, {"type": "node", "id": 2576206534, "lat": 59.3423228, "lon": 18.0493753, "tags": {"brand": "Fabrique", "brand:wikidata": "Q110533127", "name": "Fabrique", "opening_hours": "Mo-Fr 07:30-18:30; Sa-Su 08:00-16:00", "shop": "bakery"}}, {"type": "node", "id": 2576206547, "lat": 59.3420725, "lon": 18.0502607, "tags": {"amenity": "restaurant", "check_date": "2020-02-12", "name": "Mowglis K\u00f6k"}}, {"type": "node", "id": 2583977838, "lat": 59.3418967, "lon": 18.0477081, "tags": {"amenity": "cafe", "brand": "Br\u00f6d & Salt", "brand:wikidata": "Q131369998", "check_date": "2023-04-22", "diet:vegan": "yes", "diet:vegetarian": "yes", "indoor_seating": "yes", "name": "Br\u00f6d & Salt", "opening_hours": "Mo-Fr 07:00-19:00; Sa,Su 08:00-17:00", "outdoor_seating": "yes", "payment:cash": "no", "shop": "bakery", "website": "https://www.brodsalt.se/"}}, {"type": "node", "id": 2583977845, "lat": 59.341222, "lon": 18.0497436, "tags": {"amenity": "restaurant", "check_date": "2020-02-18", "cuisine": "pizza", "name": "Crispy pizza bistro", "opening_hours": "Mo-Fr 16:00-21:30; Sa 12:00-21:30; Su 12:00-20:30", "outdoor_seating": "no", "website": "https://www.crispypizzabistro.se/"}}, {"type": "node", "id": 2583977848, "lat": 59.3416455, "lon": 18.0479554, "tags": {"amenity": "restaurant", "check_date": "2020-01-09", "name": "Garage del Gusto"}}, {"type": "node", "id": 2583977850, "lat": 59.3412995, "lon": 18.048296, "tags": {"check_date": "2020-02-14", "name": "Gateau", "shop": "bakery", "website": "https://www.gateau.se/"}}, {"type": "node", "id": 2712660954, "lat": 59.3388221, "lon": 18.0455772, "tags": {"amenity": "restaurant", "check_date": "2025-07-24", "cuisine": "indian", "name": "Tusi"}}, {"type": "node", "id": 2913235466, "lat": 59.344349, "lon": 18.0528025, "tags": {"amenity": "restaurant", "check_date": "2024-03-07", "diet:vegetarian": "yes", "name": "Greasy Spoon", "opening_hours": "Mo-Fr 08:00-16:00; Sa,Su 09:00-17:00", "wheelchair": "yes"}}, {"type": "node", "id": 2913235468, "lat": 59.3446147, "lon": 18.0525515, "tags": {"amenity": "fast_food", "check_date": "2021-03-06", "name": "Falafel Stockholm", "website": "http://falafelstockholm.se"}}, {"type": "node", "id": 2913235497, "lat": 59.3444069, "lon": 18.0532092, "tags": {"amenity": "fast_food", "check_date": "2024-08-19", "cuisine": "sushi", "name": "Sondor Sushi", "phone": "+46 70 021 11 84", "takeaway": "yes"}}, {"type": "node", "id": 2923840029, "lat": 59.3420194, "lon": 18.0467902, "tags": {"amenity": "restaurant", "check_date:opening_hours": "2025-02-19", "diet:vegetarian": "yes", "name": "Esperanza", "opening_hours": "Mo-Sa 16:30-24:00; Su 16:30-21:00"}}, {"type": "node", "id": 3221572253, "lat": 59.3388573, "lon": 18.0553459, "tags": {"amenity": "restaurant", "cuisine": "italian", "indoor_seating": "yes", "name": "Tutto Bello", "opening_hours": "Mo-Fr 11:00-14:00, Mo-Sa 17:00-22:00, Fr 17:00-23:00, Sa 16:00-23:00", "outdoor_seating": "sidewalk", "payment:cash": "no", "payment:credit_cards": "yes", "payment:debit_cards": "yes", "phone": "+46-8-308850", "website": "https://tuttobello.se", "wheelchair": "limited"}}, {"type": "node", "id": 3777311559, "lat": 59.3434346, "lon": 18.0564801, "tags": {"amenity": "fast_food", "check_date": "2023-06-27", "cuisine": "mexican", "diet:vegan": "yes", "diet:vegetarian": "yes", "name": "Taco Bar", "opening_hours": "Mo-Tu 11:00-23:30;We-Sa 11:00-00:30;Su 11:00-23:30", "operator": "Taco Bar", "outdoor_seating": "yes", "phone": "+46-8-6733477", "takeaway": "yes", "website": "https://www.tacobar.se/", "wheelchair": "yes"}}, {"type": "node", "id": 3845015364, "lat": 59.3391559, "lon": 18.0544983, "tags": {"amenity": "restaurant", "check_date": "2020-02-19", "indoor_seating": "yes", "name": "Belgobarens bakficka", "operator": "Freys Hotels", "outdoor_seating": "no", "website": "https://www.belgobarensbakficka.se/"}}, {"type": "node", "id": 3865874043, "lat": 59.3412889, "lon": 18.0496718, "tags": {"amenity": "restaurant", "capacity": "20", "check_date": "2020-02-18", "cuisine": "sushi", "delivery": "no", "name": "Sushi Sho", "opening_hours": "Tu-Fr 17:30-22:00; Sa 13:00-22:00; Su-Mo off", "payment:cash": "no", "phone": "+46 8 30 30 30", "smoking": "no", "website": "https://www.sushisho.se/", "wheelchair": "limited", "wikidata": "Q78190159", "wikipedia": "sv:Sushi Sho"}}, {"type": "node", "id": 3880593038, "lat": 59.3397078, "lon": 18.0439717, "tags": {"amenity": "cafe", "check_date": "2020-04-30", "indoor_seating": "yes", "name": "Guld", "opening_hours": "Tu-Fr 09:00-19:00; Sa,Su 09:00-17:00", "outdoor_seating": "yes"}}, {"type": "node", "id": 3945439296, "lat": 59.3439569, "lon": 18.0570424, "tags": {"amenity": "restaurant", "check_date": "2020-05-06", "name": "Caf\u00e9 Facile", "opening_hours": "Mo-Sa 17:00-23:00;Su off", "phone": "+46-8-326103", "website": "https://cafefacile.se/"}}, {"type": "node", "id": 4061271000, "lat": 59.3422203, "lon": 18.0453483, "tags": {"amenity": "restaurant", "check_date": "2023-04-22", "name": "Fr\u00e4mmat"}}, {"type": "node", "id": 4345612591, "lat": 59.3423401, "lon": 18.0494495, "tags": {"amenity": "cafe", "brand": "Joe & The Juice", "brand:wikidata": "Q26221514", "brand:wikipedia": "en:Joe & The Juice", "check_date": "2023-04-22", "cuisine": "coffee_shop", "name": "Joe & The Juice", "opening_hours": "Mo-Fr 08:00-19:00; Sa,Su 08:00-18:00", "takeaway": "yes"}}, {"type": "node", "id": 4419095291, "lat": 59.3422128, "lon": 18.0406776, "tags": {"amenity": "restaurant", "check_date": "2020-03-10", "cuisine": "pizza", "name": "800 grader", "phone": "+46-8-40820570", "toilets:wheelchair": "no", "website": "https://800grader.se/", "wheelchair": "no", "wheelchair:description": "Entrance step is about 20cm high, but the rest of the space is accessible without barriers."}}, {"type": "node", "id": 5159760038, "lat": 59.3433733, "lon": 18.0507548, "tags": {"amenity": "fast_food", "check_date": "2025-03-11", "cuisine": "pizza", "indoor_seating": "yes", "name": "Brillo Pizza", "opening_hours": "Su-Th 11:00-20:00; Fr-Sa 11:00-21:00", "outdoor_seating": "yes", "website": "https://www.brillopizza.se/"}}, {"type": "node", "id": 5166413322, "lat": 59.3432017, "lon": 18.0496349, "tags": {"amenity": "cafe", "brand": "Espresso House", "brand:wikidata": "Q10489162", "brand:wikipedia": "en:Espresso House", "check_date": "2024-10-21", "cuisine": "coffee_shop", "diet:vegetarian": "yes", "internet_access": "wlan", "internet_access:fee": "no", "name": "Espresso House", "opening_hours": "Mo-Fr 06:30-22:00; Sa,Su 08:00-22:00", "takeaway": "yes", "toilets": "yes", "toilets:access": "yes", "toilets:wheelchair": "yes", "website": "https://espressohouse.com/coffee-shops/odenplan/", "wheelchair": "yes"}}, {"type": "node", "id": 5166413324, "lat": 59.3385116, "lon": 18.056681, "tags": {"amenity": "fast_food", "check_date": "2024-08-18", "cuisine": "salad", "name": "Namami", "name:ja": "\u751f\u5473", "opening_hours": "Mo-Fr 10:00-16:00; Sa-Su off"}}, {"type": "node", "id": 5320227658, "lat": 59.3370739, "lon": 18.0425836, "tags": {"amenity": "cafe", "check_date": "2024-06-09", "cuisine": "sandwich", "name": "Bistro BKH", "opening_hours": "Mo-Tu off; We 11:00-20:00; Th-Fr 11:00-17:00; Sa-Su 11:30-17:00"}}, {"type": "node", "id": 5813180292, "lat": 59.3424802, "lon": 18.0523735, "tags": {"amenity": "bar", "billiards:pool": "16", "check_date": "2024-12", "indoor_seating": "yes", "internet_access": "no", "level": "0", "name": "RoQ", "opening_hours": "Su-Th 17:00-01:00;Fr-Sa 16:00-03:00", "outdoor_seating": "no", "payment:cash": "yes", "payment:credit_cards": "yes", "payment:debit_cards": "yes", "smoking": "isolated", "sport": "billiards;shuffleboard", "start_date": "2006", "vegan": "yes", "vegetarian": "yes", "website": "https://www.roq.se/"}}, {"type": "node", "id": 6594663372, "lat": 59.3406425, "lon": 18.0401478, "tags": {"amenity": "restaurant", "check_date": "2023-12-26", "cuisine": "indian", "name": "Holy Cow", "opening_hours": "Mo-Su 13:00-22:00", "phone": "+46 8-341515", "website": "https://vasastan.theholycow.se/en_GB/"}}, {"type": "node", "id": 6992575501, "lat": 59.3406421, "lon": 18.0406071, "tags": {"amenity": "restaurant", "check_date": "2020-03-12", "cuisine": "ramen", "name": "Take Ramen", "opening_hours": "Mo-Th 11:00-20:00; Fr 11:00-21:00; Sa 12:00-21:00; Su,PH off", "phone": "+46 8 409 555 52", "website": "https://www.takeramen.com/"}}, {"type": "node", "id": 7003235465, "lat": 59.3422865, "lon": 18.0492345, "tags": {"amenity": "restaurant", "check_date": "2023-04-22", "cuisine": "sushi", "indoor_seating": "yes", "name": "Sushi Express", "opening_hours": "Mo-Su 11:00-20:00", "outdoor_seating": "yes"}}, {"type": "node", "id": 7008802837, "lat": 59.343284, "lon": 18.0518837, "tags": {"amenity": "cafe", "brand": "Thelins konditori", "brand:wikidata": "Q124048792", "check_date": "2025-01-31", "check_date:diet:vegan": "2025-01-31", "check_date:diet:vegetarian": "2025-01-31", "cuisine": "coffee_shop", "diet:vegan": "yes", "diet:vegetarian": "yes", "indoor_seating": "yes", "name": "Thelins konditori", "opening_hours": "Mo-Fr 07:00-20:00; Sa-Su 08:00-20:00", "takeaway": "yes"}}, {"type": "node", "id": 7033420513, "lat": 59.3435817, "lon": 18.0500964, "tags": {"amenity": "fast_food", "check_date": "2025-01-04", "cuisine": "hot_dog", "name": "Happy Wiener", "opening_hours": "Mo 11:00-16:00; Tu-Fr 11:00-19:00; Sa-Su 11:00-16:00"}}, {"type": "node", "id": 7044176092, "lat": 59.3433452, "lon": 18.052214, "tags": {"amenity": "restaurant", "name": "Cucina Povera"}}, {"type": "node", "id": 7044731153, "lat": 59.3405376, "lon": 18.0423496}, {"type": "node", "id": 7049205981, "lat": 59.344331, "lon": 18.0546018, "tags": {"amenity": "restaurant", "check_date": "2023-04-29", "indoor_seating": "yes", "name": "L'Avventura", "opening_hours": "Tu 17:00-24:00, We,Th 17:00-01:00, Fr,Sa 16:00-01:00", "outdoor_seating": "no", "payment:cash": "no", "phone": "+46 8519 422 74", "website": "https://lavventura.se/en"}}, {"type": "node", "id": 7061763674, "lat": 59.3405664, "lon": 18.0427272}, {"type": "node", "id": 7061763675, "lat": 59.3404775, "lon": 18.0428734}, {"type": "node", "id": 7061763676, "lat": 59.3405469, "lon": 18.042903}, {"type": "node", "id": 7061763677, "lat": 59.340497, "lon": 18.0426976}, {"type": "node", "id": 7063082362, "lat": 59.338443, "lon": 18.0474551, "tags": {"amenity": "restaurant", "check_date": "2020-01-09", "name": "Sabbatsbergs Mat & Caf\u00e9"}}, {"type": "node", "id": 7066658615, "lat": 59.3414032, "lon": 18.0522484, "tags": {"amenity": "restaurant", "check_date": "2024-12", "cuisine": "sushi", "name": "Dino Sushi", "opening_hours": "Mo-Fr 11:00-20:00; Sa 12:00-19:00", "toilets": "yes", "toilets:access": "customers", "toilets:features": "electronic_bidet", "website": "https://www.dinosushi.se/"}}, {"type": "node", "id": 7066658619, "lat": 59.3419427, "lon": 18.051721, "tags": {"amenity": "pub", "check_date": "2022-06-30", "name": "McLarens"}}, {"type": "node", "id": 7132659434, "lat": 59.3450237, "lon": 18.0421266, "tags": {"check_date": "2020-01-15", "name": "Ritorno", "shop": "bakery"}}, {"type": "node", "id": 7153971972, "lat": 59.3397793, "lon": 18.0429421, "tags": {"amenity": "cafe", "check_date": "2023-06-26", "name": "Vasaparkens Parklek", "opening_hours": "Mo-Fr 09:00-16:45", "phone": "+46850809001", "website": "https://parker.stockholm/hitta-lekplatser-parklekar-plaskdammar/parklek/vasaparkens-parklek/"}}, {"type": "node", "id": 7208218656, "lat": 59.3418244, "lon": 18.0559525, "tags": {"amenity": "cafe", "check_date": "2020-02-13", "name": "Obsans Parklek"}}, {"type": "node", "id": 7222046360, "lat": 59.3415272, "lon": 18.0494287, "tags": {"amenity": "cafe", "check_date": "2020-02-18", "name": "Franklin Coffee House", "website": "https://franklincafe.se/", "wheelchair": "no", "wheelchair:description": "Tv\u00e5 trappsteg"}}, {"type": "node", "id": 7227093310, "lat": 59.3384274, "lon": 18.0567555, "tags": {"amenity": "cafe", "name": "La Fleur Caf\u00e9 & Bar", "opening_hours": "Mo-Fr 08:00-16:00; Sa,Su 09:00-17:00"}}, {"type": "node", "id": 7271356482, "lat": 59.3379349, "lon": 18.0572395, "tags": {"amenity": "restaurant", "check_date": "2024-06-17", "cuisine": "ramen", "indoor_seating": "yes", "name": "Ramen shop", "opening_hours": "Mo-Fr 11:00-20:00; Sa-Su 12:00-20:00", "outdoor_seating": "no"}}, {"type": "node", "id": 7271371000, "lat": 59.3377221, "lon": 18.0574297, "tags": {"amenity": "restaurant", "check_date": "2025-09-27", "cuisine": "vietnamese", "indoor_seating": "yes", "level": "-1;0", "name": "Vi.Na Fresh", "opening_hours": "Mo-Th 11:00-20:30; Fr 11:00-21:00; Sa 12:00-21:00", "outdoor_seating": "yes", "payment:cash": "yes", "payment:credit_cards": "yes", "payment:debit_cards": "yes", "wheelchair": "no"}}, {"type": "node", "id": 7432769833, "lat": 59.3457247, "lon": 18.0474276, "tags": {"amenity": "restaurant", "check_date": "2020-04-22", "name": "Cliff Barnes uteservering", "opening_hours": "Tu-Sa 12:00-20:00"}}, {"type": "node", "id": 7488716813, "lat": 59.3432867, "lon": 18.0566128, "tags": {"amenity": "restaurant", "check_date": "2023-07-10", "cuisine": "burger", "name": "Burgers & Beer"}}, {"type": "node", "id": 8765078707, "lat": 59.3385419, "lon": 18.055666, "tags": {"amenity": "restaurant", "name": "Nabo", "opening_hours": "We-Sa 16:00-20:00", "phone": "+468393546", "website": "https://restaurangnabo.se/hem"}}, {"type": "node", "id": 9105355089, "lat": 59.3371584, "lon": 18.0537982, "tags": {"amenity": "fast_food", "check_date": "2024-08-25", "cuisine": "pizza", "indoor_seating": "yes", "name": "Deglabbet", "opening_hours": "We-Fr 17:00-22:00; Sa 13:00-22:00; Su 16:00-22:00", "outdoor_seating": "yes", "phone": "+46 72 971 80 52", "website": "https://www.deglabbet.se/"}}, {"type": "node", "id": 9793570982, "lat": 59.3426927, "lon": 18.0509517, "tags": {"alt_name": "Max Odenplan", "amenity": "fast_food", "brand": "Max", "brand:wikidata": "Q1912172", "check_date": "2025-04-28", "cuisine": "burger", "diet:vegan": "yes", "diet:vegetarian": "yes", "drive_through": "no", "indoor_seating": "yes", "name": "Max", "opening_hours": "Mo-Th,Su 09:00-02:00; Fr-Sa 09:00-05:00", "outdoor_seating": "no", "takeaway": "yes", "website": "https://www.max.se/hitta-max/restauranger/sthlm-odenplan-/"}}, {"type": "node", "id": 9880206895, "lat": 59.3428977, "lon": 18.0488539, "tags": {"amenity": "fast_food", "check_date": "2024-10-17", "name": "Premium"}}, {"type": "node", "id": 10130632139, "lat": 59.3392779, "lon": 18.0488836, "tags": {"addr:country": "SE", "addr:housenumber": "60", "addr:street": "Kungstensgatan", "amenity": "restaurant", "check_date": "2022-10-26", "cuisine": "pizza", "diet:gluten_free": "yes", "diet:vegan": "yes", "diet:vegetarian": "yes", "name": "Pazzi", "opening_hours": "Tu-Fr 17:00-22:00; Sa, Su 12:00-22:00", "payment:cash": "no", "payment:mastercard": "yes", "payment:visa": "yes", "phone": "+46 8 728 886 6", "website": "https://www.pazzi.se"}}, {"type": "node", "id": 10539888496, "lat": 59.3394038, "lon": 18.0556502, "tags": {"amenity": "cafe", "check_date": "2025-06-30", "check_date:opening_hours": "2024-08-25", "name": "Socker Sucker", "opening_hours": "Mo off; Tu-Fr 08:00-18:00; Sa 10:00-17:00; Su 10:00-16:00"}}, {"type": "node", "id": 10584186782, "lat": 59.3416957, "lon": 18.0468736, "tags": {"amenity": "fast_food", "cuisine": "ramen", "diet:vegan": "no", "diet:vegetarian": "yes", "indoor_seating": "yes", "name": "Kumo Ramen", "opening_hours": "Mo-Fr 11:00-21:00; Sa,Su 12:00-21:00", "outdoor_seating": "yes", "phone": "08-7581515"}}, {"type": "node", "id": 10620169807, "lat": 59.3418446, "lon": 18.0460397, "tags": {"amenity": "restaurant", "check_date": "2023-04-22", "diet:vegetarian": "yes", "name": "Tennstopet Grill", "opening_hours": "Mo-Tu 11:30-22:00;We-Fr 11:30-23:00;Sa 12:00-23:00;Su 16:00-21:00", "payment:cash": "yes", "phone": "+46-8-327800", "website": "https://www.tennstopetgrill.se/"}}, {"type": "node", "id": 11922319561, "lat": 59.3388489, "lon": 18.0576523, "tags": {"amenity": "restaurant", "check_date": "2024-06-27", "name": "Umami", "opening_hours": "Mo-Th 17:00+; Fr-Sa 16:00+; Su off"}}, {"type": "node", "id": 11987412582, "lat": 59.337664, "lon": 18.057471, "tags": {"amenity": "fast_food", "check_date": "2024-06-17", "cuisine": "salad", "name": "Restore Greens", "opening_hours": "Mo-Th 10:00-20:00; Fr 10:00-14:00; Sa 13:00-20:00; Su,PH 13:00-20:00"}}, {"type": "node", "id": 12068270442, "lat": 59.3443655, "lon": 18.0576398, "tags": {"check_date": "2024-07-22", "name": "Odenplan Thai Market", "opening_hours": "Mo-Fr 10:00-20:00; Sa,Su 11:00-18:30", "shop": "convenience"}}, {"type": "way", "id": 131849204, "nodes": [1450512317, 1450512318, 1450512316, 1450512314, 1450512317], "tags": {"amenity": "cafe", "building": "kiosk", "check_date:opening_hours": "2025-04-26", "name": "Fika 113", "opening_hours:signed": "no"}}, {"type": "way", "id": 135200044, "nodes": [1484973345, 1484973340, 7044731153, 1484973341, 1484973345], "tags": {"amenity": "fast_food", "building": "yes", "building:levels": "1", "check_date": "2019-12-09", "cuisine": "grill", "indoor_seating": "yes", "name": "Wasagrillen", "operator": "Solna korv", "outdoor_seating": "yes"}}, {"type": "way", "id": 756083729, "nodes": [7061763674, 7061763676, 7061763675, 7061763677, 7061763674], "tags": {"amenity": "cafe", "building": "yes", "building:levels": "1", "name": "Kaffeestugan"}}]}